#aV2006  2 26  0  0   .00000000      96 DD+AD WGS84 FIT  NGA
## 1364       .00000000   900.00000000 53792  .0000000000000
+   29     1  2  3  4  5  6  7  8  9 10 11 13 14 15 16 17 18
+         19 20 21 22 23 24 25 26 27 28 29 30  0  0  0  0  0
+          0  0  0  0  0  0  0  0  0  0  0  0  0  0  0  0  0
+          0  0  0  0  0  0  0  0  0  0  0  0  0  0  0  0  0
+          0  0  0  0  0  0  0  0  0  0  0  0  0  0  0  0  0
++         0  0  0  0  0  0  0  0  0  0  0  0  0  0  0  0  0
++         0  0  0  0  0  0  0  0  0  0  0  0  0  0  0  0  0
++         0  0  0  0  0  0  0  0  0  0  0  0  0  0  0  0  0
++         0  0  0  0  0  0  0  0  0  0  0  0  0  0  0  0  0
++         0  0  0  0  0  0  0  0  0  0  0  0  0  0  0  0  0
%c cc cc ccc ccc cccc cccc cccc cccc ccccc ccccc ccccc ccccc
%c cc cc ccc ccc cccc cccc cccc cccc ccccc ccccc ccccc ccccc
%f  0.0000000  0.000000000  0.00000000000  0.000000000000000
%f  0.0000000  0.000000000  0.00000000000  0.000000000000000
%i    0    0    0    0      0      0      0      0         0
%i    0    0    0    0      0      0      0      0         0
/*      NGA, ST. LOUIS,MO.                                  
/*   EPHEMERIS COMPUTED FROM  3 DAYS OF DATA                
/* CCCCCCCCCCCCCCCCCCCCCCCCCCCCCCCCCCCCCCCCCCCCCCCCCCCCCCCCC
/* CCCCCCCCCCCCCCCCCCCCCCCCCCCCCCCCCCCCCCCCCCCCCCCCCCCCCCCCC
*  2006  2 26 22 15   .00000000                                                 
P  1 -14807.384789   -313.520415 -21852.262226     38.748941                    
V  1  -5418.234117 -27623.386111   3992.033782       .019331                    
P  2  21926.016747  -9335.779218 -11811.817879    -16.885833                    
V  2  -8727.884950  12089.384171 -26542.673853       .016395                    
P  3 -14620.408475   6251.581156  21102.788998     77.827221                    
V  3  -9139.372108 -25754.387010   1587.643572       .028683                    
P  4  19339.493284     51.034052 -18393.465254    161.457274                    
V  4 -16065.300318  16781.133122 -16526.864454       .114289                    
P  5   5148.650420 -15017.249977 -21477.985572   -468.132502                    
V  5  26295.325253   5769.007987   2456.284570       .852743                    
P  6  -6371.612948 -25710.174287  -1013.588455    359.642354                    
V  6   4014.126932    460.565138 -31163.252132       .322844                    
P  7   4688.372085 -21420.784510 -14597.484750    503.616221                    
V  7   8318.602042  17569.038755 -22693.652433       .074703                    
P  8  13031.131044   8138.001180  21561.900052    -57.848144                    
V  8 -20576.119810  18462.509584   5041.038054      -.012459                    
P  9  13562.274831 -21557.000409  -7512.588003      9.557339                    
V  9   8240.179682  -4418.388156  29959.419234       .016630                    
P 10  21998.501185  -3458.589789  14622.460635     79.316195                    
V 10  17233.560650   7087.806418 -23799.479536       .006475                    
P 11 -11256.102657  22972.741708  -6723.752250    309.738843                    
V 11  -9029.483357   3854.380437  28802.685651       .027605                    
P 13   6183.697447  25852.308386    718.316558     43.948993                    
V 13  -1546.342942   1366.381742 -32352.302996       .025184                    
P 14 -14525.983910 -15331.322605 -16063.059839    -18.766256                    
V 14  -3299.374267 -20237.664967  22159.293891       .006495                    
P 15 -12457.623539  -9269.137160  21413.530664    572.076622                    
V 15  21141.786783 -17686.767355   4235.187719       .060395                    
P 16 -25076.773674  -1063.254950   8912.550216     28.438496                    
V 16  -9995.608387  -5548.977850 -28970.348262       .019186                    
P 17  14685.589031  16571.567485 -14751.596994     58.533341                    
V 17   2471.435192  18609.300571  23315.181592       .071209                    
P 18 -12759.063022 -16627.617353  16581.116453   -222.936664                    
V 18  20190.951355   5122.407979  20504.847148      -.020609                    
P 19  -8556.623985  18798.228153  16779.180548    -20.479944                    
V 19  -5606.417441 -20463.464568  20220.721937       .010713                    
P 20  -5408.722286  14348.631504 -21770.486919    -31.839574                    
V 20 -26371.645903  -7612.805283   1571.351082       .008505                    
P 21  -4345.026787 -16086.375736  20621.673324      8.958816                    
V 21  20468.298953 -16499.855970  -9084.495995       .032914                    
P 22 -22802.835946 -12361.425107   5869.369622     71.656073                    
V 22   7781.104728   -263.850355  30490.220614       .032210                    
P 23  -1710.761235  24161.719132 -10804.769905    148.996101                    
V 23  -5557.059613 -12668.235668 -27824.339096      -.013602                    
P 24   8421.889216  12626.268344 -21548.433573     88.679456                    
V 24 -21375.384918  17999.328288   2410.981229       .030080                    
P 25 -19801.739557   4610.480583 -16746.286626    -71.960324                    
V 25  12960.287875 -17913.644354 -19671.583827       .360151                    
P 26   9878.951283 -14467.433836  19392.795201    -46.951481                    
V 26   6736.282452  24691.157160  15281.776130      -.090285                    
P 27   5072.213058  16219.802380  20927.619497     37.579876                    
V 27 -17947.543799  17900.571170 -10159.674013       .016604                    
P 28  21288.259724  13429.556789   9285.652441     32.545103                    
V 28 -11453.002608  -1234.404695  28552.203115      -.008447                    
P 29  11888.088935 -10702.740541  21398.503430    545.601937                    
V 29   7211.206925  25593.999332   9148.430975       .112682                    
P 30  -5385.651461 -16560.324420 -20357.982828     26.824621                    
V 30  24747.001089   5223.479653 -10829.672149       .013834                    
EOF
